SENTINEL-5P             
1 42969U 17064A   26187.72648153  .00000049  00000+0  44456-4 0  9997
2 42969  98.7927 129.7191 0001099  92.1824 267.9478 14.19522294452338
